NORAD_CAT_ID,OBJECT_NAME,OBJECT_TYPE,EPOCH,MEAN_MOTION,ECCENTRICITY,INCLINATION,RA_OF_ASC_NODE,ARG_OF_PERICENTER,MEAN_ANOMALY,BSTAR,MEAN_MOTION_DOT,MEAN_MOTION_DDOT,TLE_LINE0,TLE_LINE1,TLE_LINE2,SEMIMAJOR_AXIS,PERIOD,APOGEE,PERIGEE,DECAYED
48148,STARLINK-2491,PAYLOAD,2022-07-27 18:40:28,15.06405625,0.0001261,53.0549,341.4183,77.6134,282.4996,0.00017624,2.345e-05,0.0,0 STARLINK-2491,1 48148U 21027BJ  22208.77811318  .00002345  00000-0  17624-3 0  9994,2 48148  53.0549 341.4183 0001261  77.6134 282.4996 15.06405625 72929,6925.331,95.592,548.07,546.323,0.0
48148,STARLINK-2491,PAYLOAD,2022-07-28 09:00:19,15.06410847,0.0001305,53.0547,338.7376,75.7913,284.3221,0.00022212,3.029e-05,0.0,0 STARLINK-2491,1 48148U 21027BJ  22209.37522991  .00003029  00000-0  22212-3 0  9996,2 48148  53.0547 338.7376 0001305  75.7913 284.3221 15.06410847 73401,6925.315,95.591,548.0840000000002,546.2769999999998,0.0
48148,STARLINK-2491,PAYLOAD,2022-07-28 18:33:33,15.0641422,0.0001299,53.0549,336.9508,75.1027,285.0105,0.00034654,4.886e-05,0.0,0 STARLINK-2491,1 48148U 21027BJ  22209.77330738  .00004886  00000-0  34654-3 0  9991,2 48148  53.0549 336.9508 0001299  75.1027 285.0105 15.06414220 73466,6925.305,95.591,548.07,546.27,0.0
48148,STARLINK-2491,PAYLOAD,2022-07-29 08:53:25,15.0639613,0.0001388,53.0547,334.2685,90.4675,269.6473,-4.9007e-05,-1.011e-05,0.0,0 STARLINK-2491,1 48148U 21027BJ  22210.37043247 -.00001011  00000-0 -49007-4 0  9993,2 48148  53.0547 334.2685 0001388  90.4675 269.6473 15.06396130 73161,6925.36,95.592,548.187,546.264,0.0
48148,STARLINK-2491,PAYLOAD,2022-07-29 18:26:39,15.0640034,0.0001309,53.0548,332.4840000000001,83.2227,276.8911,1.7832e-05,-1.6e-07,0.0,0 STARLINK-2491,1 48148U 21027BJ  22210.76851395 -.00000016  00000-0  17832-4 0  9991,2 48148  53.0548 332.4840 0001309  83.2227 276.8911 15.06400340 73617,6925.348000000001,95.592,548.119,546.306,0.0
48148,STARLINK-2491,PAYLOAD,2022-07-30 08:46:30,15.06402249,0.0001167,53.0545,329.8025,79.0569,281.0551,0.00012771,1.621e-05,0.0,0 STARLINK-2491,1 48148U 21027BJ  22211.36563459  .00001621  00000-0  12771-3 0  9997,2 48148  53.0545 329.8025 0001167  79.0569 281.0551 15.06402249 73701,6925.342,95.592,548.015,546.398,0.0
48148,STARLINK-2491,PAYLOAD,2022-07-30 15:08:40,15.06393154,0.0001097,53.055,328.6108,74.6165,285.4945,-2.5716e-05,-6.64e-06,0.0,0 STARLINK-2491,1 48148U 21027BJ  22211.63102632 -.00000664  00000-0 -25716-4 0  9991,2 48148  53.0550 328.6108 0001097  74.6165 285.4945 15.06393154 73351,6925.37,95.593,547.994,546.475,0.0
48148,STARLINK-2491,PAYLOAD,2022-07-31 00:41:55,15.06383394,0.0001179,53.0544,326.8239,75.9037,284.2083,8.3607e-05,9.64e-06,0.0,0 STARLINK-2491,1 48148U 21027BJ  22212.02911488  .00000964  00000-0  83607-4 0  9996,2 48148  53.0544 326.8239 0001179  75.9037 284.2083 15.06383394 73414,6925.399,95.593,548.081,546.448,0.0
48148,STARLINK-2491,PAYLOAD,2022-07-31 08:39:37,15.06385691,0.0001124,53.0544,325.3346,71.7349,288.3762,-2.9822e-05,-7.25e-06,0.0,0 STARLINK-2491,1 48148U 21027BJ  22212.36085089 -.00000725  00000-0 -29822-4 0  9998,2 48148  53.0544 325.3346 0001124  71.7349 288.3762 15.06385691 73856,6925.392,95.593,548.036,546.479,0.0
48148,STARLINK-2491,PAYLOAD,2022-07-31 16:37:19,15.06388128,0.0001151,53.0545,323.8456,73.0382,287.0733,1.3680999999999995e-05,-7.8e-07,0.0,0 STARLINK-2491,1 48148U 21027BJ  22212.69258630 -.00000078  00000-0  13681-4 0  9994,2 48148  53.0545 323.8456 0001151  73.0382 287.0733 15.06388128 73902,6925.385,95.593,548.047,546.453,0.0
48148,STARLINK-2491,PAYLOAD,2022-08-01 13:19:20,15.06393977,0.0001109,53.055,319.9731,79.7792,280.3322,5.0852e-05,4.76e-06,0.0,0 STARLINK-2491,1 48148U 21027BJ  22213.55509731  .00000476  00000-0  50852-4 0  9993,2 48148  53.0550 319.9731 0001109  79.7792 280.3322 15.06393977 74034,6925.3669999999975,95.593,548.0,546.464,0.0
48148,STARLINK-2491,PAYLOAD,2022-08-01 16:30:25,15.06393218,0.0001148,53.055,319.3781,78.6136,281.4981,0.00013568,1.74e-05,0.0,0 STARLINK-2491,1 48148U 21027BJ  22213.68778999  .00001740  00000-0  13568-3 0  9998,2 48148  53.0550 319.3781 0001148  78.6136 281.4981 15.06393218 74059,6925.369000000002,95.593,548.029,546.439,0.0
48148,STARLINK-2491,PAYLOAD,2022-08-02 13:12:25,15.06402819,0.0001103,53.055,315.5059,79.7468,280.3645,0.00022857,3.125e-05,0.0,0 STARLINK-2491,1 48148U 21027BJ  22214.55029386  .00003125  00000-0  22857-3 0  9994,2 48148  53.0550 315.5059 0001103  79.7468 280.3645 15.06402819 74183,6925.34,95.592,547.969,546.441,0.0
48148,STARLINK-2491,PAYLOAD,2022-08-02 17:59:02,15.06406847,0.00011220000000000004,53.0541,314.6127,77.9156,282.1959,0.00028653,3.99e-05,0.0,0 STARLINK-2491,1 48148U 21027BJ  22214.74933557  .00003990  00000-0  28653-3 0  9999,2 48148  53.0541 314.6127 0001122  77.9156 282.1959 15.06406847 74211,6925.328,95.592,547.97,546.4159999999998,0.0
48148,STARLINK-2491,PAYLOAD,2022-08-03 11:29:58,15.06401688,0.0001183,53.0538,311.3361,78.6821,281.4301,9.4111e-05,1.121e-05,0.0,0 STARLINK-2491,1 48148U 21027BJ  22215.47915108  .00001121  00000-0  94111-4 0  9999,2 48148  53.0538 311.3361 0001183  78.6821 281.4301 15.06401688 73934,6925.343000000003,95.592,548.028,546.389,0.0
48148,STARLINK-2491,PAYLOAD,2022-08-03 17:52:08,15.06402686,0.0001151,53.055,310.1449,77.2763,282.8355,8.7409e-05,1.021e-05,0.0,0 STARLINK-2491,1 48148U 21027BJ  22215.74453705  .00001021  00000-0  87409-4 0  9990,2 48148  53.0550 310.1449 0001151  77.2763 282.8355 15.06402686 74368,6925.34,95.592,548.002,546.408,0.0
48148,STARLINK-2491,PAYLOAD,2022-08-04 11:23:03,15.06409023,0.0001165,53.0549,306.8687,76.9827,283.1292,8.0168e-05,9.13e-06,0.0,0 STARLINK-2491,1 48148U 21027BJ  22216.47434456  .00000913  00000-0  80168-4 0  9997,2 48148  53.0549 306.8687 0001165  76.9827 283.1292 15.06409023 74472,6925.321,95.592,547.993,546.379,0.0
48148,STARLINK-2491,PAYLOAD,2022-08-04 17:45:13,15.06398181,0.0001118,53.0548,305.6773,76.7695,283.3419,-4.2759e-05,-9.18e-06,0.0,0 STARLINK-2491,1 48148U 21027BJ  22216.73974097 -.00000918  00000-0 -42759-4 0  9997,2 48148  53.0548 305.6773 0001118  76.7695 283.3419 15.06398181 74120,6925.354,95.592,547.993,546.445,0.0
48148,STARLINK-2491,PAYLOAD,2022-08-05 12:51:41,15.064001500000002,0.00012649999999999998,53.0539,302.1034,74.8883,285.2246,9.0828e-05,1.072e-05,0.0,0 STARLINK-2491,1 48148U 21027BJ  22217.53589883  .00001072  00000-0  90828-4 0  9991,2 48148  53.0539 302.1034 0001265  74.8883 285.2246 15.06400150 74638,6925.348000000001,95.592,548.089,546.337,0.0
48148,STARLINK-2491,PAYLOAD,2022-08-05 16:02:46,15.06401254,0.0001277,53.0538,301.5076,75.0207,285.0923,0.000106,1.298e-05,0.0,0 STARLINK-2491,1 48148U 21027BJ  22217.66859207  .00001298  00000-0  10600-3 0  9994,2 48148  53.0538 301.5076 0001277  75.0207 285.0923 15.06401254 74267,6925.345,95.592,548.094,546.325,0.0
48148,STARLINK-2491,PAYLOAD,2022-08-06 11:09:14,15.064087,0.0001116,53.054,297.9329,90.0612,270.0505,0.00010353,1.261e-05,0.0,0 STARLINK-2491,1 48148U 21027BJ  22218.46474749  .00001261  00000-0  10353-3 0  9992,2 48148  53.0540 297.9329 0001116  90.0612 270.0505 15.06408700 74777,6925.321999999999,95.592,547.96,546.414,0.0
48148,STARLINK-2491,PAYLOAD,2022-08-06 17:31:23,15.0640888,0.0001132,53.0542,296.7414,86.1951,273.9167,0.0002236,3.051e-05,0.0,0 STARLINK-2491,1 48148U 21027BJ  22218.73013406  .00003051  00000-0  22360-3 0  9991,2 48148  53.0542 296.7414 0001132  86.1951 273.9167 15.06408880 74428,6925.321,95.592,547.97,546.4019999999998,0.0
48148,STARLINK-2491,PAYLOAD,2022-08-06 22:18:01,15.06394476,0.000129,53.0536,295.8486,75.2012,284.9120000000001,1.1513e-05,-1.1e-06,0.0,0 STARLINK-2491,1 48148U 21027BJ  22218.92918269 -.00000110  00000-0  11513-4 0  9996,2 48148  53.0536 295.8486 0001290  75.2012 284.9120 15.06394476 74451,6925.365,95.592,548.124,546.337,0.0
48148,STARLINK-2491,PAYLOAD,2022-08-07 11:02:20,15.06401464,0.00012849999999999998,53.0537,293.4658,75.9895,284.1236,0.00012097,1.521e-05,0.0,0 STARLINK-2491,1 48148U 21027BJ  22219.45995631  .00001521  00000-0  12097-3 0  9996,2 48148  53.0537 293.4658 0001285  75.9895 284.1236 15.06401464 74925,6925.344,95.592,548.099,546.319,0.0
48148,STARLINK-2491,PAYLOAD,2022-08-07 15:48:57,15.06404197,0.00013000000000000002,53.0537,292.5723,76.0747,284.0386,0.00016034,2.108e-05,0.0,0 STARLINK-2491,1 48148U 21027BJ  22219.65899538  .00002108  00000-0  16034-3 0  9994,2 48148  53.0537 292.5723 0001300  76.0747 284.0386 15.06404197 74565,6925.3359999999975,95.592,548.101,546.3,0.0
48148,STARLINK-2491,PAYLOAD,2022-08-08 12:30:57,15.06403512,0.0001343,53.0536,288.6999,76.2288,283.885,0.00024901,3.43e-05,0.0,0 STARLINK-2491,1 48148U 21027BJ  22220.52150334  .00003430  00000-0  24901-3 0  9997,2 48148  53.0536 288.6999 0001343  76.2288 283.8850 15.06403512 75085,6925.3380000000025,95.592,548.133,546.273,0.0
48148,STARLINK-2491,PAYLOAD,2022-08-08 15:42:02,15.06404618,0.00013969999999999998,53.0537,288.1041,74.8339,285.2804,0.00025256,3.483e-05,0.0,0 STARLINK-2491,1 48148U 21027BJ  22220.65419634  .00003483  00000-0  25256-3 0  9994,2 48148  53.0537 288.1041 0001397  74.8339 285.2804 15.06404618 75105,6925.334,95.592,548.1669999999998,546.232,0.0
48148,STARLINK-2491,PAYLOAD,2022-08-09 04:26:20,15.06411263,0.0001343,53.0536,285.7216,74.6772,285.4366,0.00028278,3.934e-05,0.0,0 STARLINK-2491,1 48148U 21027BJ  22221.18496514  .00003934  00000-0  28278-3 0  9993,2 48148  53.0536 285.7216 0001343  74.6772 285.4366 15.06411263 74794,6925.314,95.591,548.109,546.249,0.0
48148,STARLINK-2491,PAYLOAD,2022-08-09 12:24:03,15.06402535,0.000135,53.0536,284.2329,75.8669,284.2469,7.5203e-05,8.39e-06,0.0,0 STARLINK-2491,1 48148U 21027BJ  22221.51670221  .00000839  00000-0  75203-4 0  9991,2 48148  53.0536 284.2329 0001350  75.8669 284.2469 15.06402535 74848,6925.3409999999985,95.592,548.141,546.271,0.0
